{"fetched_at":"2026-03-29T16:36:15Z","count":15609,"tles":[{"name":"STARLINK-35907","line1":"1 66498U 25263P   26087.76258785  .00026099  00000+0  95389-3 0  9994","line2":"2 66498  42.9960 243.1801 0001542 260.8216  99.2462 15.27603494 21816","category":"Starlink"}]}